[{"OBJECT_NAME":"STARLINK-30892","OBJECT_ID":"2023-177R","EPOCH":"2026-03-09T22:00:01.999584","MEAN_MOTION":15.26754133,"ECCENTRICITY":0.0001698,"INCLINATION":43.0009,"RA_OF_ASC_NODE":349.0843,"ARG_OF_PERICENTER":264.5012,"MEAN_ANOMALY":141.2544,"EPHEMERIS_TYPE":0,"CLASSIFICATION_TYPE":"U","NORAD_CAT_ID":58366,"ELEMENT_SET_NO":999,"REV_AT_EPOCH":578,"BSTAR":-0.00044717978,"MEAN_MOTION_DOT":-0.0001224,"MEAN_MOTION_DDOT":0},{"OBJECT_NAME":"ATLAS 5 CENTAUR R\/B","OBJECT_ID":"2013-072P","EPOCH":"2026-03-09T21:36:10.628064","MEAN_MOTION":14.96443736,"ECCENTRICITY":0.0189428,"INCLINATION":120.4328,"RA_OF_ASC_NODE":111.5185,"ARG_OF_PERICENTER":160.796,"MEAN_ANOMALY":200.0359,"EPHEMERIS_TYPE":0,"CLASSIFICATION_TYPE":"U","NORAD_CAT_ID":39475,"ELEMENT_SET_NO":999,"REV_AT_EPOCH":9970,"BSTAR":0.00054929733,"MEAN_MOTION_DOT":8.701e-5,"MEAN_MOTION_DDOT":0}]
